ANIK F3                 
1 31102U 07009A   17012.35695615 -.00000015  00000-0  00000+0 0  9990
2 31102   0.0171  40.8457 0002305 263.4053 177.5501  1.00271010 35814
ASTRA 1L                
1 31306U 07016A   17012.20810213  .00000106  00000-0  00000+0 0  9991
2 31306   0.0774 303.6238 0005486 351.7000 270.6450  1.00272570 35519
GALAXY 17 (G-17)        
1 31307U 07016B   17012.07744779  .00000000  00000-0  10000-3 0  9998
2 31307   0.0342  57.8453 0002985 261.7050  89.0271  1.00265479 35540
ZHONGXING-6B            
1 31800U 07031A   17012.47782177 -.00000376  00000-0  00000+0 0  9993
2 31800   0.0105  54.9181 0003576 219.0055 125.7780  1.00271352 34953
DIRECTV 10              
1 31862U 07032A   17012.21394110  .00000000  00000-0  10000-3 0  9998
2 31862   0.0215 150.4400 0000610 228.7453  66.8595  1.00267375 34885
SPACEWAY 3              
1 32018U 07036A   17010.32581093 -.00000160  00000-0  00000+0 0  9997
2 32018   0.0057 164.8245 0000231 172.1669 155.3701  1.00268751 34588
BSAT-3A                 
1 32019U 07036B   17012.38342792 -.00000364  00000-0  00000+0 0  9993
2 32019   0.0721 240.5120 0004387  23.3437  96.0717  1.00270057 34543
INSAT-4CR               
1 32050U 07037A   17012.62888983 -.00000091  00000-0  00000+0 0  9990
2 32050   0.0185  41.1509 0010263 239.4648 132.1012  1.00270658 34336
OPTUS D2                
1 32252U 07044A   17012.44859494 -.00000197  00000-0  00000+0 0  9994
2 32252   0.0504 257.8081 0004004  36.3930 131.4083  1.00270802 33925
INTELSAT 11 (IS-11)     
1 32253U 07044B   17012.16276101 -.00000282  00000-0  00000+0 0  9997
2 32253   0.0529 236.1921 0003396  65.3910 185.8285  1.00269982 34003
STAR ONE C1             
1 32293U 07056A   17010.87331442 -.00000287  00000-0  00000+0 0  9995
2 32293   0.0471  96.1820 0003518 208.2793  55.4876  1.00270845 33577
SKYNET 5B               
1 32294U 07056B   17011.79363815  .00000129  00000-0  00000+0 0  9991
2 32294   0.0674 353.0794 0003917 299.9915 129.1932  1.00274110 33676
ASTRA 4A (SIRIUS 4)     
1 32299U 07057A   17012.06645486  .00000019  00000-0  00000+0 0  9993
2 32299   0.0190 345.6709 0003334 307.4756 207.3141  1.00271600 33434
HORIZONS-2              
1 32388U 07063B   17012.06294856 -.00000196  00000-0  00000+0 0  9997
2 32388   0.0096 350.5493 0003395 312.9796 275.7041  1.00272417 33351
THURAYA-3               
1 32404U 08001A   17012.10667566 -.00000310  00000-0  00000+0 0  9994
2 32404   4.1251 352.1556 0005374 299.6149 316.9182  1.00272011 33004
EXPRESS-AM33            
1 32478U 08003A   17012.05975273 -.00000293  00000-0  00000+0 0  9998
2 32478   0.0203 221.7264 0000171 167.1747 200.8377  1.00270262 33099
THOR 5                  
1 32487U 08006A   17012.09431184 -.00000023  00000-0  00000+0 0  9994
2 32487   0.0079 303.6498 0003113 357.8197 203.4849  1.00271747 32658
KIZUNA (WINDS)          
1 32500U 08007A   17012.53900451  .00000000  00000-0  10000-3 0  9997
2 32500   0.5061  91.3951 0002015 195.9273 161.8567  1.00264814 32517
AMC-14                  
1 32708U 08011A   17012.19548093  .00000074  00000-0  00000+0 0  9990
2 32708  18.8312  65.2267 0033378 351.8523 143.1670  1.00270370 33574
DIRECTV 11              
1 32729U 08013A   17011.45448661 -.00000137  00000-0  00000+0 0  9994
2 32729   0.0197 216.1770 0000687  61.6966 257.7005  1.00271028 32407
ICO G1                  
1 32763U 08016A   17012.29224573 -.00000180  00000-0  00000+0 0  9990
2 32763   3.9011 353.1117 0003277 307.8594 183.3630  1.00271720 31944
VINASAT-1               
1 32767U 08018A   17012.41063971  .00000000  00000-0  10000-3 0  9998
2 32767   0.0159  22.2948 0001793 282.1794  87.3619  1.00266698 32087
STAR ONE C2             
1 32768U 08018B   17010.88725273 -.00000275  00000-0  00000+0 0  9998
2 32768   0.0479 134.5812 0001330 151.2665  74.1198  1.00271060 32018
TIANLIAN 1-01           
1 32779U 08019A   17011.87879036 -.00000154  00000-0  10000-3 0  9999
2 32779   2.4846  76.8468 0038867 224.5000 206.7009  1.00274175 31946
AMOS-3                  
1 32794U 08022A   17012.09521458 -.00000047  00000-0  00000+0 0  9993
2 32794   0.0146 101.0551 0001592 212.2100 188.7938  1.00274016 31926
GALAXY 18 (G-18)        
1 32951U 08024A   17012.03112919  .00000012  00000-0  00000+0 0  9993
2 32951   0.0143  23.5070 0002729 270.9435  65.5211  1.00269478 31569
CHINASAT 9 (ZX 9)       
1 33051U 08028A   17011.84690682 -.00000260  00000-0  00000+0 0  9991
2 33051   0.0043 104.6383 0004183 189.5950 214.3626  1.00270273 31481
SKYNET 5C               
1 33055U 08030A   17011.99770472 -.00000153  00000-0  00000+0 0  9991
2 33055   0.0592  12.0562 0004064 274.7658 166.1828  1.00271144 31379
TURKSAT 3A              
1 33056U 08030B   17012.07456538  .00000133  00000-0  00000+0 0  9993
2 33056   0.0531 154.1893 0003719 127.8656 258.5037  1.00271269 31556
INTELSAT 25 (IS-25)     
1 33153U 08034A   17011.77774992 -.00000236  00000-0  00000+0 0  9993
2 33153   0.0469 258.8865 0002619  12.3412  88.7214  1.00273177 31113
BADR-6                  
1 33154U 08034B   17011.66831684  .00000132  00000-0  00000+0 0  9998
2 33154   0.0598  40.5923 0003692 289.2627  48.0533  1.00271267 31237
ECHOSTAR 11             
1 33207U 08035A   17011.99522929 -.00000070  00000-0  00000+0 0  9995
2 33207   0.0157 343.7538 0003595 321.1461  55.0448  1.00271623 31139
SUPERBIRD-C2            
1 33274U 08038A   17012.45494216 -.00000265  00000-0  00000+0 0  9997
2 33274   0.0170 317.7593 0001488 345.7812 116.3193  1.00271567 30865
AMC-21                  
1 33275U 08038B   17012.22219189  .00000023  00000-0  00000+0 0  9998
2 33275   0.0211 343.5322 0003058 325.6953 117.7429  1.00270173 30945
INMARSAT 4-F3           
1 33278U 08039A   17012.36032418 -.00000148  00000-0  00000+0 0  9994
2 33278   3.0206 359.9044 0002928 297.6977 206.1679  1.00271781 30740
NIMIQ 4                 
1 33373U 08044A   17012.28692545 -.00000234  00000-0  00000+0 0  9996
2 33373   0.0450  78.9763 0002638 242.6084 171.7014  1.00267170 30317
GALAXY 19 (G-19)        
1 33376U 08045A   17010.96195364 -.00000150  00000-0  00000+0 0  9997
2 33376   0.0180  56.0190 0003593 240.7984  63.1277  1.00271251 30309
VENESAT-1               
1 33414U 08055A   17012.27323677 -.00000251  00000-0  00000+0 0  9999
2 33414   0.0240 244.8786 0002386  40.2727 207.1427  1.00273481 30038
ASTRA 1M                
1 33436U 08057A   17012.26036087  .00000106  00000-0  00000+0 0  9998
2 33436   0.0246  79.0474 0001690 157.6219 348.1743  1.00268973 29952
CIEL-2                  
1 33453U 08063A   17012.21917785  .00000044  00000-0  00000+0 0  9993
2 33453   0.0293 308.6977 0003498 350.3749 122.8612  1.00272166 29636
EUTELSAT HOT BIRD 13C   
1 33459U 08065A   17011.65458880  .00000074  00000-0  00000+0 0  9997
2 33459   0.0606  57.2083 0002364 234.5489  68.1972  1.00271823 29720
EUTELSAT 48D            
1 33460U 08065B   17012.12761510  .00000111  00000-0  00000+0 0  9991
2 33460   0.0519 342.8524 0003549 298.5438 284.4166  1.00272452 29589
FENGYUN 2E              
1 33463U 08066A   17009.79429984 -.00000212  00000-0  00000+0 0  9993
2 33463   1.8854  65.5500 0004536 218.8966 197.9020  1.00272144 29545
EXPRESS-AM44            
1 33595U 09007A   17011.19560750 -.00000100  00000-0  00000+0 0  9995
2 33595   0.0155 207.9467 0000234  99.9783 222.3791  1.00271918 29025
NSS-9                   
1 33749U 09008A   17011.80177687  .00000059  00000-0  00000+0 0  9990
2 33749   0.0259 332.9521 0002554 317.5276 292.6871  1.00271426 29038
EUTELSAT 33E            
1 33750U 09008B   17012.01228819  .00000142  00000-0  00000+0 0  9993
2 33750   0.0480 310.4210 0005477 314.1276 244.6504  1.00268517 29073
TELSTAR 11N             
1 34111U 09009A   17012.16030074 -.00000264  00000-0  00000+0 0  9992
2 34111   0.0034 124.8568 0003038 169.3509 197.7583  1.00271020 28890
EUTELSAT 10A            
1 34710U 09016A   17012.09593426  .00000055  00000-0  00000+0 0  9999
2 34710   0.0625   4.2941 0005316 290.9993 221.0108  1.00272696 28441
SES-7 (PROTOSTAR 2)     
1 34941U 09027A   17011.53017333  .00000000  00000-0  10000-3 0  9998
2 34941   0.0256  67.0049 0002853 231.1271 112.1804  1.00266330 28094
MEASAT-3A               
1 35362U 09032A   17011.43703880 -.00000253  00000-0  00000+0 0  9996
2 35362   0.0304 255.2048 0003220   7.3630  97.3956  1.00270348 27711
GOES 14                 
1 35491U 09033A   17011.97943057 -.00000106  00000-0  00000+0 0  9998
2 35491   0.0708 259.5808 0008017 339.8922 120.4263  1.00272573 27631
SIRIUS FM-5             
1 35493U 09034A   17011.36685422 -.00000212  00000-0  00000+0 0  9991
2 35493   0.0053  56.7787 0000394 257.2280 202.9578  1.00270442 27446
TERRESTAR-1             
1 35496U 09035A   17010.95001559 -.00000062  00000-0  00000+0 0  9995
2 35496   3.0199 341.3715 0003013 315.7252  44.5514  1.00272033 27625
ASIASAT 5               
1 35696U 09042A   17012.51314198  .00000000  00000-0  10000-3 0  9991
2 35696   0.0048  32.5189 0002006 247.0503 117.7935  1.00264718 27157
JCSAT-RA (JCSAT-12)     
1 35755U 09044A   17012.49358513  .00000000  00000-0  10000-3 0  9995
2 35755   0.0643  65.2993 0002254 307.4146  44.9938  1.00262274 27147
OPTUS D3                
1 35756U 09044B   17012.39148860  .00000000  00000-0  10000-3 0  9997
2 35756   0.0384  56.4642 0003717 244.5010 108.0092  1.00266966 27100
PALAPA D                
1 35812U 09046A   17011.37764682 -.00000369  00000-0  00000+0 0  9999
2 35812   0.0217  68.3698 0002499 248.9604  42.6309  1.00269676 27143
NIMIQ 5                 
1 35873U 09050A   17012.17691483 -.00000270  00000-0  00000+0 0  9999
2 35873   0.0157  50.0496 0003060 245.6580 167.1121  1.00270351 26831
AMAZONAS 2              
1 35942U 09054A   17011.47260251 -.00000294  00000-0  00000+0 0  9993
2 35942   0.0442 124.6809 0001375 115.2215 340.3888  1.00268756 26656
